GLOBALSTAR M023 [+]     
1 25621U 99004A   24114.68248306 -.00000039  00000+0  36198-3 0  9999
2 25621  52.0107 250.7937 0009579 279.4585 183.6545 12.62451631162749
GLOBALSTAR M040 [-]     
1 25622U 99004B   24114.82527972 -.00000059  00000+0  24873-3 0  9994
2 25622  51.9912 253.8964 0001053 150.9661  13.1695 12.61971814162307
GLOBALSTAR M038 [-]     
1 25624U 99004D   24114.42415273 -.00000030  00000+0  53281-3 0  9996
2 25624  51.9962 200.4103 0001628 244.4588 196.0789 12.32497651150618
GLOBALSTAR M022 [-]     
1 25649U 99012A   24114.89132306 -.00000020  00000+0  80504-3 0  9993
2 25649  52.0072 350.7205 0003234  61.6419  23.0378 12.02480625126018
GLOBALSTAR M041 [-]     
1 25650U 99012B   24114.57468430 -.00000096  00000+0 -13637-3 0  9997
2 25650  52.0017 220.2375 0002584 195.8883 164.1873 11.96660072128286
